COMMENT,ORIGINATOR,NORAD_CAT_ID,OBJECT_NAME,OBJECT_TYPE,CLASSIFICATION_TYPE,INTLDES,EPOCH,EPOCH_MICROSECONDS,MEAN_MOTION,ECCENTRICITY,INCLINATION,RA_OF_ASC_NODE,ARG_OF_PERICENTER,MEAN_ANOMALY,EPHEMERIS_TYPE,ELEMENT_SET_NO,REV_AT_EPOCH,BSTAR,MEAN_MOTION_DOT,MEAN_MOTION_DDOT,FILE,TLE_LINE0,TLE_LINE1,TLE_LINE2,OBJECT_ID,OBJECT_NUMBER,SEMIMAJOR_AXIS,PERIOD,APOGEE,PERIGEE
"GENERATED VIA SPACETRACK.ORG API","JSPOC","19503","COSMOS 1972 (GLONASS)","PAYLOAD","U","88085C","2016-01-11 20:28:36","60960","2.13102227","0.0002532","64.9835","83.5283","229.6311","89.5444","0","999","21253","0","5e-08","0","1979502","0 COSMOS 1972 (GLONASS)","1 19503U 88085C   16011.85319515 +.00000005 +00000-0 +00000-0 0  9998","2 19503 064.9835 083.5283 0002532 229.6311 089.5444 02.13102227212537","1988-085C","19503","25508.006","675.732","19136.329","19123.412"
"GENERATED VIA SPACETRACK.ORG API","JSPOC","28939","ASTRO F (AKARI)","PAYLOAD","U","06005A","2016-01-11 20:28:47","169408","15.23166445","0.0120167","98.2187","152.9969","191.7487","168.0939","0","999","53341","0.00040122","0.00011524","0","1979502","0 ASTRO F (AKARI)","1 28939U 06005A   16011.85332372 +.00011524 +00000-0 +40122-3 0  9999","2 28939 098.2187 152.9969 0120167 191.7487 168.0939 15.23166445533412","2006-005A","28939","6874.433","94.539","578.906","413.690"
"GENERATED VIA SPACETRACK.ORG API","JSPOC","6846","COSMOS 589","PAYLOAD","U","73069B","2016-01-11 20:28:58","231200","12.5318101","0.0047516","73.998","192.87","228.4521","196.5337","0","999","93417","-6.9781e-05","-2.7e-07","0","1979151","0 COSMOS 589","1 06846U 73069B   16011.85345175 -.00000027  00000-0 -69781-4 0  9992","2 06846  73.9980 192.8700 0047516 228.4521 196.5337 12.53181010934176","1973-069B","6846","7829.354","114.907","1488.421","1414.017"
"GENERATED VIA SPACETRACK.ORG API","JSPOC","40261","SJ-11-07","PAYLOAD","U","14059A","2016-01-11 20:28:59","717280","14.60507682","0.0012878","98.0954","99.7533","181.9662","178.1482","0","999","6867","4.7369e-05","1.84e-06","0","1979121","0 SJ-11-07","1 40261U 14059A   16011.85346895  .00000184  00000-0  47369-4 0  9995","2 40261  98.0954  99.7533 0012878 181.9662 178.1482 14.60507682 68672","2014-059A","40261","7069.672","98.595","700.641","682.432"
"GENERATED VIA SPACETRACK.ORG API","JSPOC","7493","SL-3 R/B","ROCKET BODY","U","74083B","2016-01-11 20:29:16","916928","14.07606763","0.0038193","81.1834","309.773","99.7185","260.8301","0","999","11500","0.00011664","2.11e-06","0","1979502","0 SL-3 R/B","1  7493U 74083B   16011.85366802 +.00000211 +00000-0 +11664-3 0  9997","2  7493 081.1834 309.7730 0038193 099.7185 260.8301 14.07606763115009","1974-083B","7493","7245.709","102.301","895.248","839.901"
"GENERATED VIA SPACETRACK.ORG API","JSPOC","33591","NOAA 19","PAYLOAD","U","09005A","2016-01-11 20:29:20","65344","14.12026837","0.0013253","99.0193","327.5216","304.9948","54.9978","0","999","35667","9.4502e-05","1.28e-06","0","1979502","0 NOAA 19","1 33591U 09005A   16011.85370446 +.00000128 +00000-0 +94502-4 0  9996","2 33591 099.0193 327.5216 0013253 304.9948 054.9978 14.12026837356674","2009-005A","33591","7230.581","101.981","862.028","842.863"
"GENERATED VIA SPACETRACK.ORG API","JSPOC","4322","DELTA 1 R/B","ROCKET BODY","U","70008C","2016-01-11 20:29:24","922752","12.51885022","0.002876","101.8096","77.9735","126.9684","2.6154","0","999","10024","9.4343e-05","-3e-07","0","1979502","0 DELTA 1 R/B","1  4322U 70008C   16011.85376068 -.00000030 +00000-0 +94343-4 0  9999","2  4322 101.8096 077.9735 0028760 126.9684 002.6154 12.51885022100244","1970-008C","4322","7834.757","115.026","1479.155","1434.089"
"GENERATED VIA SPACETRACK.ORG API","JSPOC","36605","TANDEM X","PAYLOAD","U","10030A","2016-01-11 20:29:34","329984","15.19139987","0.00016","97.4461","20.9592","84.4165","36.9674","0","999","30831","-0.00032222","-6.825e-05","0","1979053","0 TANDEM X","1 36605U 10030A   16011.85386956 -.00006825  00000-0 -32222-3 0  9990","2 36605  97.4461  20.9592 0001600  84.4165  36.9674 15.19139987308318","2010-030A","36605","6886.575","94.790","509.542","507.338"
"GENERATED VIA SPACETRACK.ORG API","JSPOC","7272","COSMOS 648","PAYLOAD","U","74024H","2016-01-11 20:29:34","162368","12.50323141","0.0033903","74.02","321.0092","290.5249","98.4289","0","999","90428","2.7158e-05","-1.2e-07","0","1979502","0 COSMOS 648","1  7272U 74024H   16011.85386762 -.00000012 +00000-0 +27158-4 0  9990","2  7272 074.0200 321.0092 0033903 290.5249 098.4289 12.50323141904284","1974-024H","7272","7841.280","115.170","1489.729","1436.561"
"GENERATED VIA SPACETRACK.ORG API","JSPOC","32500","WINDS (KIZUNA)","PAYLOAD","U","08007A","2016-01-11 20:29:38","338080","1.00272502","0.0002554","0.0917","266.7575","37.3721","257.0649","0","999","2883","0","-2.58e-06","0","1979152","0 WINDS (KIZUNA)","1 32500U 08007A   16011.85391595 -.00000258  00000-0  00000+0 0  9994","2 32500   0.0917 266.7575 0002554  37.3721 257.0649  1.00272502 28839","2008-007A","32500","42164.530","1436.086","35797.164","35775.627"
"GENERATED VIA SPACETRACK.ORG API","JSPOC","37166","ZHEDA PIXING 1B","PAYLOAD","U","10047B","2016-01-11 20:29:41","862336","14.80226211","0.0024575","97.7397","50.4367","140.3628","219.9381","0","999","28627","6.6792e-05","4.6e-06","0","1979502","0 ZHEDA PIXING 1B","1 37166U 10047B   16011.85395674 +.00000460 +00000-0 +66792-4 0  9995","2 37166 097.7397 050.4367 0024575 140.3628 219.9381 14.80226211286274","2010-047B","37166","7006.747","97.282","645.831","611.393"
"GENERATED VIA SPACETRACK.ORG API","JSPOC","20024","COSMOS 2022 (GLONASS)","PAYLOAD","U","89039A","2016-01-11 20:29:45","445344","2.13102195","0.0007319","64.7774","80.7653","223.4267","63.3786","0","999","20715","0","4e-08","0","1979502","0 COSMOS 2022 (GLONASS)","1 20024U 89039A   16011.85399821 +.00000004 +00000-0 +00000-0 0  9995","2 20024 064.7774 080.7653 0007319 223.4267 063.3786 02.13102195207152","1989-039A","20024","25508.008","675.732","19148.543","19111.204"
"GENERATED VIA SPACETRACK.ORG API","JSPOC","15152","HIMAWARI 3 (GMS 3)","PAYLOAD","U","84080A","2016-01-11 20:29:48","193728","0.99833403","0.0002756","14.9431","357.5068","37.0505","144.092","0","999","11461","0","-3.49e-06","0","1979502","0 HIMAWARI 3 (GMS 3)","1 15152U 84080A   16011.85403002 -.00000349 +00000-0 +00000-0 0  9992","2 15152 014.9431 357.5068 0002756 037.0505 144.0920 00.99833403114614","1984-080A","15152","42288.075","1442.403","35921.595","35898.286"
"GENERATED VIA SPACETRACK.ORG API","JSPOC","20553","COSMOS 2068","PAYLOAD","U","90029E","2016-01-11 20:29:57","160320","12.56215805","0.0031617","73.9804","162.4135","229.2101","203.131","0","999","18185","-7.5412e-05","-2.9e-07","0","1979088","0 COSMOS 2068","1 20553U 90029E   16011.85413380 -.00000029  00000-0 -75412-4 0  9992","2 20553  73.9804 162.4135 0031617 229.2101 203.1310 12.56215805181853","1990-029E","20553","7816.740","114.629","1463.319","1413.890"
"GENERATED VIA SPACETRACK.ORG API","JSPOC","39766","ALOS 2","PAYLOAD","U","14029A","2016-01-11 20:29:59","792064","14.79475892","0.0001415","97.92","110.6983","86.4825","273.6562","0","999","8837","6.6298e-05","4.44e-06","0","1979168","0 ALOS 2","1 39766U 14029A   16011.85416426  .00000444  00000-0  66298-4 0  9999","2 39766  97.9200 110.6983 0001415  86.4825 273.6562 14.79475892 88375","2014-029A","39766","7009.115","97.331","631.972","629.989"
"GENERATED VIA SPACETRACK.ORG API","JSPOC","37941","YAOGAN 13","PAYLOAD","U","11072A","2016-01-11 20:30:00","222336","15.17952594","0.0002368","97.4634","300.2765","97.3268","347.6638","0","999","22842","0.00015929","3.167e-05","0","1979146","0 YAOGAN 13","1 37941U 11072A   16011.85416924  .00003167  00000-0  15929-3 0  9999","2 37941  97.4634 300.2765 0002368  97.3268 347.6638 15.17952594228429","2011-072A","37941","6890.166","94.864","513.662","510.399"
"GENERATED VIA SPACETRACK.ORG API","JSPOC","10114","SL-3 R/B","ROCKET BODY","U","77057B","2016-01-11 20:30:01","720512","15.15920451","0.0014052","97.2098","214.5251","351.0412","9.0568","0","999","10439","6.2004e-05","1.128e-05","0","1979116","0 SL-3 R/B","1 10114U 77057B   16011.85418658  .00001128  00000-0  62004-4 0  9995","2 10114  97.2098 214.5251 0014052 351.0412   9.0568 15.15920451104390","1977-057B","10114","6896.322","94.991","527.878","508.496"
"GENERATED VIA SPACETRACK.ORG API","JSPOC","26622","DELTA 2 R/B","ROCKET BODY","U","00075D","2016-01-11 20:30:02","242368","13.04390011","0.0718178","95.4338","331.1438","337.6224","45.2292","0","999","72058","-0.00031103","-3.66e-06","0","1979502","0 DELTA 2 R/B","1 26622U 00075D   16011.85419262 -.00000366 +00000-0 -31103-3 0  9994","2 26622 095.4338 331.1438 0718178 337.6224 045.2292 13.04390011720582","2000-075D","26622","7623.075","110.396","1792.412","697.467"
"GENERATED VIA SPACETRACK.ORG API","JSPOC","21875","COSMOS 2180","PAYLOAD","U","92008A","2016-01-11 20:30:12","61728","13.73701016","0.0038695","82.9271","163.844","131.0863","21.8343","0","999","19803","1.6555e-05","3.1e-07","0","1979083","0 COSMOS 2180","1 21875U 92008A   16011.85430627  .00000031  00000-0  16555-4 0  9996","2 21875  82.9271 163.8440 0038695 131.0863  21.8343 13.73701016198034","1992-008A","21875","7364.450","104.826","1014.812","957.818"
"GENERATED VIA SPACETRACK.ORG API","JSPOC","20466","SL-14 R/B","ROCKET BODY","U","90010B","2016-01-11 20:30:18","428544","14.81175028","0.0019169","82.5044","141.2995","252.7088","107.2028","0","999","37911","2.3295e-05","2.05e-06","0","1979502","0 SL-14 R/B","1 20466U 90010B   16011.85437996 +.00000205 +00000-0 +23295-4 0  9990","2 20466 082.5044 141.2995 0019169 252.7088 107.2028 14.81175028379110","1990-010B","20466","7003.754","97.220","639.045","612.194"
